start=new Date('2022-11-30T00:00:00.000Z').valueOf();
sats=[{"MEAN_ANOMALY":"324.8679","EPHEMERIS_TYPE":"0","SEMIMAJOR_AXIS":"6917.876","CENTER_NAME":"EARTH","ELEMENT_SET_NO":"999","OBJECT_NAME":"STARLINK-4682","PERIOD":"95.437","NORAD_CAT_ID":"53597","FILE":"3673849","TIME_SYSTEM":"UTC","ECCENTRICITY":"0.00015880","DECAY_DATE":null,"CLASSIFICATION_TYPE":"U","BSTAR":"-0.00100310000000","OBJECT_TYPE":"PAYLOAD","EPOCH":"2022-11-29T22:00:00.999936","MEAN_MOTION_DOT":"-0.00016218","MEAN_ELEMENT_THEORY":"SGP4","OBJECT_ID":"2022-104K","COUNTRY_CODE":"US","APOAPSIS":"540.839","MEAN_MOTION_DDOT":"0.0000000000000","INCLINATION":"53.2158","LAUNCH_DATE":"2022-08-28","REF_FRAME":"TEME","RCS_SIZE":"LARGE","REV_AT_EPOCH":"130","TLE_LINE2":"2 53597  53.2158 212.0867 0001588  72.6763 324.8679 15.08841565  1300","GP_ID":"219113883","TLE_LINE1":"1 53597U 22104K   22333.91667824 -.00016218  00000-0 -10031-2 0  9991","MEAN_MOTION":"15.08841565","ARG_OF_PERICENTER":"72.6763","RA_OF_ASC_NODE":"212.0867","SITE":"AFETR","PERIAPSIS":"538.642"},{"APOAPSIS":"540.993","COUNTRY_CODE":"US","OBJECT_ID":"2022-104L","EPOCH":"2022-11-29T22:00:00.999936","MEAN_MOTION_DOT":"-0.00016035","MEAN_ELEMENT_THEORY":"SGP4","RCS_SIZE":"LARGE","REF_FRAME":"TEME","MEAN_MOTION_DDOT":"0.0000000000000","INCLINATION":"53.2177","LAUNCH_DATE":"2022-08-28","TLE_LINE1":"1 53598U 22104L   22333.91667824 -.00016035  00000-0 -99184-3 0  9996","TLE_LINE2":"2 53598  53.2177 211.9830 0001764  61.8806  35.7193 15.08830929  1305","GP_ID":"219113710","REV_AT_EPOCH":"130","PERIAPSIS":"538.553","SITE":"AFETR","RA_OF_ASC_NODE":"211.9830","MEAN_MOTION":"15.08830929","ARG_OF_PERICENTER":"61.8806","SEMIMAJOR_AXIS":"6917.908","EPHEMERIS_TYPE":"0","MEAN_ANOMALY":"35.7193","PERIOD":"95.438","OBJECT_NAME":"STARLINK-4676","ELEMENT_SET_NO":"999","CENTER_NAME":"EARTH","DECAY_DATE":null,"ECCENTRICITY":"0.00017640","TIME_SYSTEM":"UTC","FILE":"3673849","NORAD_CAT_ID":"53598","BSTAR":"-0.00099184000000","OBJECT_TYPE":"PAYLOAD","CLASSIFICATION_TYPE":"U"},{"CLASSIFICATION_TYPE":"U","BSTAR":"-0.00090420000000","OBJECT_TYPE":"PAYLOAD","TIME_SYSTEM":"UTC","FILE":"3673849","NORAD_CAT_ID":"53600","DECAY_DATE":null,"ECCENTRICITY":"0.00020210","ELEMENT_SET_NO":"999","CENTER_NAME":"EARTH","PERIOD":"95.437","OBJECT_NAME":"STARLINK-4677","EPHEMERIS_TYPE":"0","MEAN_ANOMALY":"88.1978","SEMIMAJOR_AXIS":"6917.868","RA_OF_ASC_NODE":"211.8974","ARG_OF_PERICENTER":"49.4334","MEAN_MOTION":"15.08844162","PERIAPSIS":"538.335","SITE":"AFETR","REV_AT_EPOCH":"130","TLE_LINE1":"1 53600U 22104N   22333.91667824 -.00014652  00000-0 -90420-3 0  9997","TLE_LINE2":"2 53600  53.2178 211.8974 0002021  49.4334  88.1978 15.08844162  1300","GP_ID":"219114577","MEAN_MOTION_DDOT":"0.0000000000000","INCLINATION":"53.2178","LAUNCH_DATE":"2022-08-28","RCS_SIZE":"LARGE","REF_FRAME":"TEME","OBJECT_ID":"2022-104N","EPOCH":"2022-11-29T22:00:00.999936","MEAN_MOTION_DOT":"-0.00014652","MEAN_ELEMENT_THEORY":"SGP4","APOAPSIS":"541.131","COUNTRY_CODE":"US"},{"APOAPSIS":"541.017","COUNTRY_CODE":"US","OBJECT_ID":"2022-104P","EPOCH":"2022-11-29T22:00:00.999936","MEAN_ELEMENT_THEORY":"SGP4","MEAN_MOTION_DOT":"-0.00016363","RCS_SIZE":"LARGE","REF_FRAME":"TEME","MEAN_MOTION_DDOT":"0.0000000000000","INCLINATION":"53.2172","LAUNCH_DATE":"2022-08-28","TLE_LINE1":"1 53601U 22104P   22333.91667824 -.00016363  00000-0 -10126-2 0  9993","TLE_LINE2":"2 53601  53.2172 212.0136 0001795  56.5925  20.9754 15.08830280  1302","GP_ID":"219114405","REV_AT_EPOCH":"130","PERIAPSIS":"538.533","SITE":"AFETR","RA_OF_ASC_NODE":"212.0136","ARG_OF_PERICENTER":"56.5925","MEAN_MOTION":"15.08830280","SEMIMAJOR_AXIS":"6917.910","EPHEMERIS_TYPE":"0","MEAN_ANOMALY":"20.9754","PERIOD":"95.438","OBJECT_NAME":"STARLINK-4675","ELEMENT_SET_NO":"999","CENTER_NAME":"EARTH","DECAY_DATE":null,"ECCENTRICITY":"0.00017950","TIME_SYSTEM":"UTC","NORAD_CAT_ID":"53601","FILE":"3673849","BSTAR":"-0.00101260000000","OBJECT_TYPE":"PAYLOAD","CLASSIFICATION_TYPE":"U"},{"TIME_SYSTEM":"UTC","NORAD_CAT_ID":"53602","FILE":"3673849","DECAY_DATE":null,"ECCENTRICITY":"0.00019150","CLASSIFICATION_TYPE":"U","BSTAR":"-0.00039987000000","OBJECT_TYPE":"PAYLOAD","EPHEMERIS_TYPE":"0","MEAN_ANOMALY":"203.5365","SEMIMAJOR_AXIS":"6917.852","ELEMENT_SET_NO":"999","CENTER_NAME":"EARTH","PERIOD":"95.437","OBJECT_NAME":"STARLINK-4648","REV_AT_EPOCH":"130","TLE_LINE1":"1 53602U 22104Q   22333.91667824 -.00006648  00000-0 -39987-3 0  9996","TLE_LINE2":"2 53602  53.2149 207.3674 0001915  56.0767 203.5365 15.08849356  1305","GP_ID":"219113537","RA_OF_ASC_NODE":"207.3674","ARG_OF_PERICENTER":"56.0767","MEAN_MOTION":"15.08849356","PERIAPSIS":"538.392","SITE":"AFETR","OBJECT_ID":"2022-104Q","EPOCH":"2022-11-29T22:00:00.999936","MEAN_MOTION_DOT":"-0.00006648","MEAN_ELEMENT_THEORY":"SGP4","APOAPSIS":"541.042","COUNTRY_CODE":"US","INCLINATION":"53.2149","MEAN_MOTION_DDOT":"0.0000000000000","LAUNCH_DATE":"2022-08-28","RCS_SIZE":"LARGE","REF_FRAME":"TEME"},{"TLE_LINE2":"2 53603  53.2151 207.4813 0001702  53.8078 145.7363 15.08856705  1300","GP_ID":"219114057","TLE_LINE1":"1 53603U 22104R   22333.91667824 -.00053302  00000-0 -33543-2 0  9997","REV_AT_EPOCH":"130","SITE":"AFETR","PERIAPSIS":"538.517","MEAN_MOTION":"15.08856705","ARG_OF_PERICENTER":"53.8078","RA_OF_ASC_NODE":"207.4813","COUNTRY_CODE":"US","APOAPSIS":"540.872","EPOCH":"2022-11-29T22:00:00.999936","MEAN_ELEMENT_THEORY":"SGP4","MEAN_MOTION_DOT":"-0.00053302","OBJECT_ID":"2022-104R","REF_FRAME":"TEME","RCS_SIZE":"LARGE","MEAN_MOTION_DDOT":"0.0000000000000","INCLINATION":"53.2151","LAUNCH_DATE":"2022-08-28","ECCENTRICITY":"0.00017020","DECAY_DATE":null,"FILE":"3673849","NORAD_CAT_ID":"53603","TIME_SYSTEM":"UTC","BSTAR":"-0.00335430000000","OBJECT_TYPE":"PAYLOAD","CLASSIFICATION_TYPE":"U","SEMIMAJOR_AXIS":"6917.829","EPHEMERIS_TYPE":"0","MEAN_ANOMALY":"145.7363","OBJECT_NAME":"STARLINK-4692","PERIOD":"95.436","CENTER_NAME":"EARTH","ELEMENT_SET_NO":"999"},{"RA_OF_ASC_NODE":"207.1086","MEAN_MOTION":"15.08822319","ARG_OF_PERICENTER":"52.5489","PERIAPSIS":"538.398","SITE":"AFETR","REV_AT_EPOCH":"130","TLE_LINE1":"1 53604U 22104S   22333.91667824 -.00021845  00000-0 -13592-2 0  9997","TLE_LINE2":"2 53604  53.2168 207.1086 0002026  52.5489 347.3094 15.08822319  1305","GP_ID":"219114232","MEAN_MOTION_DDOT":"0.0000000000000","INCLINATION":"53.2168","LAUNCH_DATE":"2022-08-28","RCS_SIZE":"LARGE","REF_FRAME":"TEME","OBJECT_ID":"2022-104S","EPOCH":"2022-11-29T22:00:00.999936","MEAN_ELEMENT_THEORY":"SGP4","MEAN_MOTION_DOT":"-0.00021845","APOAPSIS":"541.201","COUNTRY_CODE":"US","CLASSIFICATION_TYPE":"U","OBJECT_TYPE":"PAYLOAD","BSTAR":"-0.00135920000000","TIME_SYSTEM":"UTC","FILE":"3673849","NORAD_CAT_ID":"53604","DECAY_DATE":null,"ECCENTRICITY":"0.00020260","ELEMENT_SET_NO":"999","CENTER_NAME":"EARTH","PERIOD":"95.439","OBJECT_NAME":"STARLINK-4690","EPHEMERIS_TYPE":"0","MEAN_ANOMALY":"347.3094","SEMIMAJOR_AXIS":"6917.934"},{"CLASSIFICATION_TYPE":"U","BSTAR":"-0.00092127000000","OBJECT_TYPE":"PAYLOAD","FILE":"3673849","NORAD_CAT_ID":"53605","TIME_SYSTEM":"UTC","ECCENTRICITY":"0.00017810","DECAY_DATE":null,"CENTER_NAME":"EARTH","ELEMENT_SET_NO":"999","OBJECT_NAME":"STARLINK-4693","PERIOD":"95.438","EPHEMERIS_TYPE":"0","MEAN_ANOMALY":"66.5605","SEMIMAJOR_AXIS":"6917.881","ARG_OF_PERICENTER":"51.0776","MEAN_MOTION":"15.08839875","RA_OF_ASC_NODE":"211.9353","SITE":"AFETR","PERIAPSIS":"538.514","REV_AT_EPOCH":"130","TLE_LINE2":"2 53605  53.2177 211.9353 0001781  51.0776  66.5605 15.08839875  1309","GP_ID":"219114751","TLE_LINE1":"1 53605U 22104T   22333.91667824 -.00014920  00000-0 -92127-3 0  9996","INCLINATION":"53.2177","MEAN_MOTION_DDOT":"0.0000000000000","LAUNCH_DATE":"2022-08-28","REF_FRAME":"TEME","RCS_SIZE":"LARGE","EPOCH":"2022-11-29T22:00:00.999936","MEAN_MOTION_DOT":"-0.00014920","MEAN_ELEMENT_THEORY":"SGP4","OBJECT_ID":"2022-104T","COUNTRY_CODE":"US","APOAPSIS":"540.978"},{"SEMIMAJOR_AXIS":"6917.855","EPHEMERIS_TYPE":"0","MEAN_ANOMALY":"262.5727","PERIOD":"95.437","OBJECT_NAME":"STARLINK-4590","ELEMENT_SET_NO":"999","CENTER_NAME":"EARTH","DECAY_DATE":null,"ECCENTRICITY":"0.00022160","TIME_SYSTEM":"UTC","FILE":"3673849","NORAD_CAT_ID":"53606","OBJECT_TYPE":"PAYLOAD","BSTAR":"-0.00040626000000","CLASSIFICATION_TYPE":"U","APOAPSIS":"541.253","COUNTRY_CODE":"US","OBJECT_ID":"2022-104U","EPOCH":"2022-11-29T22:00:00.999936","MEAN_MOTION_DOT":"-0.00006750","MEAN_ELEMENT_THEORY":"SGP4","RCS_SIZE":"LARGE","REF_FRAME":"TEME","INCLINATION":"53.2158","MEAN_MOTION_DDOT":"0.0000000000000","LAUNCH_DATE":"2022-08-28","TLE_LINE1":"1 53606U 22104U   22333.91667824 -.00006750  00000-0 -40626-3 0  9996","TLE_LINE2":"2 53606  53.2158 202.2587 0002216  49.8147 262.5727 15.08848352  1305","GP_ID":"219113884","REV_AT_EPOCH":"130","PERIAPSIS":"538.187","SITE":"AFETR","RA_OF_ASC_NODE":"202.2587","MEAN_MOTION":"15.08848352","ARG_OF_PERICENTER":"49.8147"},{"TLE_LINE1":"1 53607U 22104V   22333.91667824 -.00009862  00000-0 -60247-3 0  9995","TLE_LINE2":"2 53607  53.2158 207.2190 0002069  47.8565 291.8530 15.08832977  1302","GP_ID":"219113711","REV_AT_EPOCH":"130","PERIAPSIS":"538.336","SITE":"AFETR","RA_OF_ASC_NODE":"207.2190","MEAN_MOTION":"15.08832977","ARG_OF_PERICENTER":"47.8565","APOAPSIS":"541.198","COUNTRY_CODE":"US","OBJECT_ID":"2022-104V","EPOCH":"2022-11-29T22:00:00.999936","MEAN_MOTION_DOT":"-0.00009862","MEAN_ELEMENT_THEORY":"SGP4","RCS_SIZE":"LARGE","REF_FRAME":"TEME","MEAN_MOTION_DDOT":"0.0000000000000","INCLINATION":"53.2158","LAUNCH_DATE":"2022-08-28","DECAY_DATE":null,"ECCENTRICITY":"0.00020690","TIME_SYSTEM":"UTC","NORAD_CAT_ID":"53607","FILE":"3673849","OBJECT_TYPE":"PAYLOAD","BSTAR":"-0.00060247000000","CLASSIFICATION_TYPE":"U","SEMIMAJOR_AXIS":"6917.902","EPHEMERIS_TYPE":"0","MEAN_ANOMALY":"291.8530","PERIOD":"95.438","OBJECT_NAME":"STARLINK-4591","ELEMENT_SET_NO":"999","CENTER_NAME":"EARTH"}];
